0 FENGYUN 1C DEB
1 30958U 99025BAY 13292.12044666  .00006391  00000-0  27204-2 0  5145
2 30958 098.0121 045.8552 0165787 272.5820 082.2903 14.18352304341112
